{
    "links": {
        "self": "http://www.neowsapp.com/rest/v1/neo/54017537?api_key=iIulBulltgU6a56xZRHN4H3l9WmuAYTsLGpBGhQ2"
    },
    "id": "54017537",
    "neo_reference_id": "54017537",
    "name": "(2020 LY1)",
    "designation": "2020 LY1",
    "nasa_jpl_url": "http://ssd.jpl.nasa.gov/sbdb.cgi?sstr=54017537",
    "absolute_magnitude_h": 21.365,
    "estimated_diameter": {
        "kilometers": {
            "estimated_diameter_min": 0.1417604152,
            "estimated_diameter_max": 0.316985925
        },
        "meters": {
            "estimated_diameter_min": 141.7604152206,
            "estimated_diameter_max": 316.9859249519
        },
        "miles": {
            "estimated_diameter_min": 0.088085811,
            "estimated_diameter_max": 0.1969658612
        },
        "feet": {
            "estimated_diameter_min": 465.0932406724,
            "estimated_diameter_max": 1039.9801020191
        }
    },
    "is_potentially_hazardous_asteroid": false,
    "close_approach_data": [
        {
            "close_approach_date": "2020-06-16",
            "close_approach_date_full": "2020-Jun-16 08:00",
            "epoch_date_close_approach": 1592294400000,
            "relative_velocity": {
                "kilometers_per_second": "16.7774299936",
                "kilometers_per_hour": "60398.7479770237",
                "miles_per_hour": "37529.4331527234"
            },
            "miss_distance": {
                "astronomical": "0.3624683353",
                "lunar": "141.0001824317",
                "kilometers": "54224490.903325811",
                "miles": "33693536.2572897518"
            },
            "orbiting_body": "Earth"
        }
    ],
    "orbital_data": {
        "orbit_id": "3",
        "orbit_determination_date": "2020-07-04 08:52:19",
        "first_observation_date": "2020-06-14",
        "last_observation_date": "2020-06-20",
        "data_arc_in_days": 6,
        "observations_used": 20,
        "orbit_uncertainty": "8",
        "minimum_orbit_intersection": ".242619",
        "jupiter_tisserand_invariant": "3.846",
        "epoch_osculation": "2459017.5",
        "eccentricity": ".3145035908045823",
        "semi_major_axis": "1.78776560168638",
        "inclination": "32.83958889788212",
        "ascending_node_longitude": "269.9778903651481",
        "orbital_period": "873.1006108032448",
        "perihelion_distance": "1.225506900439099",
        "perihelion_argument": "330.4042596836459",
        "aphelion_distance": "2.350024302933662",
        "perihelion_time": "2458970.352996861825",
        "mean_anomaly": "19.43982276467321",
        "mean_motion": ".4123236148796222",
        "equinox": "J2000",
        "orbit_class": {
            "orbit_class_type": "AMO",
            "orbit_class_description": "Near-Earth asteroid orbits similar to that of 1221 Amor",
            "orbit_class_range": "1.017 AU < q (perihelion) < 1.3 AU"
        }
    },
    "is_sentry_object": false
}